ONEWEB-0323             
1 49106U 21075AH  25243.18699673 -.00000351  00000+0 -10107-2 0  9991
2 49106  87.8879  48.2699 0002357 104.2472 255.8918 13.12442522196510
ONEWEB-0329             
1 49107U 21075AJ  25243.25754375 -.00000095  00000+0 -27799-3 0  9992
2 49107  87.9024  63.5654 0001910  96.2690 263.8659 13.17648320195408
ONEWEB-0330             
1 49108U 21075AK  25243.25837885  .00000057  00000+0  11372-3 0  9997
2 49108  87.9029  63.5685 0001615  98.3105 261.8210 13.17651570195440
ONEWEB-0292             
1 49186U 21083A   25242.92892350 -.00000099  00000+0 -30631-3 0  9990
2 49186  87.9014  17.9258 0001903  98.3348 261.7996 13.13469308192829
ONEWEB-0303             
1 49187U 21083B   25243.15228606  .00000012  00000+0 -23786-5 0  9993
2 49187  87.9166  33.0505 0001930  96.8862 263.2490 13.18685940191750
ONEWEB-0306             
1 49188U 21083C   25242.91475960  .00000054  00000+0  10354-3 0  9994
2 49188  87.9166  33.0833 0001539  92.9796 267.1512 13.18686587191760
ONEWEB-0307             
1 49189U 21083D   25243.07533921  .00000088  00000+0  20484-3 0  9997
2 49189  87.9001  17.8958 0001461 104.0029 256.1263 13.13472336192846
ONEWEB-0320             
1 49190U 21083E   25243.14897065 -.00000024  00000+0 -92621-4 0  9994
2 49190  87.9166  33.0651 0001797  95.5688 264.5649 13.18683706191757
ONEWEB-0321             
1 49191U 21083F   25243.20393255  .00000063  00000+0  12187-3 0  9993
2 49191  87.9289 332.2341 0001559  97.5462 262.5848 13.20770366198558
ONEWEB-0322             
1 49192U 21083G   25243.07112937  .00000305  00000+0  80066-3 0  9995
2 49192  87.9016  17.8917 0001337  91.8705 268.2577 13.13470962192831
ONEWEB-0324             
1 49193U 21083H   25243.13577466  .00000068  00000+0  13919-3 0  9994
2 49193  87.9166  33.0471 0001720 100.2540 259.8787 13.18684530191775
ONEWEB-0325             
1 49194U 21083J   25243.13908518  .00000019  00000+0  14629-4 0  9997
2 49194  87.9167  33.0639 0001692  93.1316 267.0010 13.18686753191782
ONEWEB-0326             
1 49195U 21083K   25243.15406185  .00000036  00000+0  57658-4 0  9991
2 49195  87.9164  33.0494 0002123  94.8652 265.2722 13.18688681191771
ONEWEB-0327             
1 49196U 21083L   25243.15377365 -.00000157  00000+0 -43040-3 0  9994
2 49196  87.9161  33.0768 0002089  94.2029 265.9342 13.18685905191799
ONEWEB-0328             
1 49197U 21083M   25243.13715221  .00000329  00000+0  86558-3 0  9990
2 49197  87.9014  17.8172 0001709 101.6897 258.4424 13.13470507192828
ONEWEB-0331             
1 49198U 21083N   25242.91970927  .00000049  00000+0  91268-4 0  9996
2 49198  87.9164  33.0884 0002052 101.9045 258.2317 13.18686230191752
ONEWEB-0333             
1 49199U 21083P   25243.13207355  .00000369  00000+0  97575-3 0  9991
2 49199  87.9001  17.8868 0001739  95.5385 264.5942 13.13470063192835
