[{"OBJECT_NAME":"ONEWEB-0323","OBJECT_ID":"2021-075AH","EPOCH":"2025-08-31T04:29:16.517472","MEAN_MOTION":13.12442522,"ECCENTRICITY":0.00023576,"INCLINATION":87.8879,"RA_OF_ASC_NODE":48.2699,"ARG_OF_PERICENTER":104.2472,"MEAN_ANOMALY":255.8918,"EPHEMERIS_TYPE":0,"CLASSIFICATION_TYPE":"U","NORAD_CAT_ID":49106,"ELEMENT_SET_NO":999,"REV_AT_EPOCH":19651,"BSTAR":-0.0010106732,"MEAN_MOTION_DOT":-3.51e-6,"MEAN_MOTION_DDOT":0},{"OBJECT_NAME":"ONEWEB-0329","OBJECT_ID":"2021-075AJ","EPOCH":"2025-08-31T06:10:51.780000","MEAN_MOTION":13.1764832,"ECCENTRICITY":0.00019101,"INCLINATION":87.9024,"RA_OF_ASC_NODE":63.5654,"ARG_OF_PERICENTER":96.269,"MEAN_ANOMALY":263.8659,"EPHEMERIS_TYPE":0,"CLASSIFICATION_TYPE":"U","NORAD_CAT_ID":49107,"ELEMENT_SET_NO":999,"REV_AT_EPOCH":19540,"BSTAR":-0.00027798991,"MEAN_MOTION_DOT":-9.5e-7,"MEAN_MOTION_DDOT":0},{"OBJECT_NAME":"ONEWEB-0330","OBJECT_ID":"2021-075AK","EPOCH":"2025-08-31T06:12:03.932640","MEAN_MOTION":13.1765157,"ECCENTRICITY":0.00016151,"INCLINATION":87.9029,"RA_OF_ASC_NODE":63.5685,"ARG_OF_PERICENTER":98.3105,"MEAN_ANOMALY":261.821,"EPHEMERIS_TYPE":0,"CLASSIFICATION_TYPE":"U","NORAD_CAT_ID":49108,"ELEMENT_SET_NO":999,"REV_AT_EPOCH":19544,"BSTAR":0.0001137166,"MEAN_MOTION_DOT":5.7e-7,"MEAN_MOTION_DDOT":0},{"OBJECT_NAME":"ONEWEB-0292","OBJECT_ID":"2021-083A","EPOCH":"2025-08-30T22:17:38.990400","MEAN_MOTION":13.13469308,"ECCENTRICITY":0.00019033,"INCLINATION":87.9014,"RA_OF_ASC_NODE":17.9258,"ARG_OF_PERICENTER":98.3348,"MEAN_ANOMALY":261.7996,"EPHEMERIS_TYPE":0,"CLASSIFICATION_TYPE":"U","NORAD_CAT_ID":49186,"ELEMENT_SET_NO":999,"REV_AT_EPOCH":19282,"BSTAR":-0.00030630785,"MEAN_MOTION_DOT":-9.9e-7,"MEAN_MOTION_DDOT":0},{"OBJECT_NAME":"ONEWEB-0303","OBJECT_ID":"2021-083B","EPOCH":"2025-08-31T03:39:17.515584","MEAN_MOTION":13.1868594,"ECCENTRICITY":0.00019303,"INCLINATION":87.9166,"RA_OF_ASC_NODE":33.0505,"ARG_OF_PERICENTER":96.8862,"MEAN_ANOMALY":263.249,"EPHEMERIS_TYPE":0,"CLASSIFICATION_TYPE":"U","NORAD_CAT_ID":49187,"ELEMENT_SET_NO":999,"REV_AT_EPOCH":19175,"BSTAR":-2.378626e-6,"MEAN_MOTION_DOT":1.2e-7,"MEAN_MOTION_DDOT":0},{"OBJECT_NAME":"ONEWEB-0306","OBJECT_ID":"2021-083C","EPOCH":"2025-08-30T21:57:15.229440","MEAN_MOTION":13.18686587,"ECCENTRICITY":0.0001539,"INCLINATION":87.9166,"RA_OF_ASC_NODE":33.0833,"ARG_OF_PERICENTER":92.9796,"MEAN_ANOMALY":267.1512,"EPHEMERIS_TYPE":0,"CLASSIFICATION_TYPE":"U","NORAD_CAT_ID":49188,"ELEMENT_SET_NO":999,"REV_AT_EPOCH":19176,"BSTAR":0.00010353923,"MEAN_MOTION_DOT":5.4e-7,"MEAN_MOTION_DDOT":0},{"OBJECT_NAME":"ONEWEB-0307","OBJECT_ID":"2021-083D","EPOCH":"2025-08-31T01:48:29.307744","MEAN_MOTION":13.13472336,"ECCENTRICITY":0.00014613,"INCLINATION":87.9001,"RA_OF_ASC_NODE":17.8958,"ARG_OF_PERICENTER":104.0029,"MEAN_ANOMALY":256.1263,"EPHEMERIS_TYPE":0,"CLASSIFICATION_TYPE":"U","NORAD_CAT_ID":49189,"ELEMENT_SET_NO":999,"REV_AT_EPOCH":19284,"BSTAR":0.00020484009,"MEAN_MOTION_DOT":8.8e-7,"MEAN_MOTION_DDOT":0},{"OBJECT_NAME":"ONEWEB-0320","OBJECT_ID":"2021-083E","EPOCH":"2025-08-31T03:34:31.064160","MEAN_MOTION":13.18683706,"ECCENTRICITY":0.00017971,"INCLINATION":87.9166,"RA_OF_ASC_NODE":33.0651,"ARG_OF_PERICENTER":95.5688,"MEAN_ANOMALY":264.5649,"EPHEMERIS_TYPE":0,"CLASSIFICATION_TYPE":"U","NORAD_CAT_ID":49190,"ELEMENT_SET_NO":999,"REV_AT_EPOCH":19175,"BSTAR":-9.2620548e-5,"MEAN_MOTION_DOT":-2.4e-7,"MEAN_MOTION_DDOT":0},{"OBJECT_NAME":"ONEWEB-0321","OBJECT_ID":"2021-083F","EPOCH":"2025-08-31T04:53:39.772320","MEAN_MOTION":13.20770366,"ECCENTRICITY":0.0001559,"INCLINATION":87.9289,"RA_OF_ASC_NODE":332.2341,"ARG_OF_PERICENTER":97.5462,"MEAN_ANOMALY":262.5848,"EPHEMERIS_TYPE":0,"CLASSIFICATION_TYPE":"U","NORAD_CAT_ID":49191,"ELEMENT_SET_NO":999,"REV_AT_EPOCH":19855,"BSTAR":0.0001218665,"MEAN_MOTION_DOT":6.3e-7,"MEAN_MOTION_DDOT":0},{"OBJECT_NAME":"ONEWEB-0322","OBJECT_ID":"2021-083G","EPOCH":"2025-08-31T01:42:25.577568","MEAN_MOTION":13.13470962,"ECCENTRICITY":0.00013371,"INCLINATION":87.9016,"RA_OF_ASC_NODE":17.8917,"ARG_OF_PERICENTER":91.8705,"MEAN_ANOMALY":268.2577,"EPHEMERIS_TYPE":0,"CLASSIFICATION_TYPE":"U","NORAD_CAT_ID":49192,"ELEMENT_SET_NO":999,"REV_AT_EPOCH":19283,"BSTAR":0.0008006621,"MEAN_MOTION_DOT":3.05e-6,"MEAN_MOTION_DDOT":0},{"OBJECT_NAME":"ONEWEB-0324","OBJECT_ID":"2021-083H","EPOCH":"2025-08-31T03:15:30.930624","MEAN_MOTION":13.1868453,"ECCENTRICITY":0.00017204,"INCLINATION":87.9166,"RA_OF_ASC_NODE":33.0471,"ARG_OF_PERICENTER":100.254,"MEAN_ANOMALY":259.8787,"EPHEMERIS_TYPE":0,"CLASSIFICATION_TYPE":"U","NORAD_CAT_ID":49193,"ELEMENT_SET_NO":999,"REV_AT_EPOCH":19177,"BSTAR":0.0001391917,"MEAN_MOTION_DOT":6.8e-7,"MEAN_MOTION_DDOT":0},{"OBJECT_NAME":"ONEWEB-0325","OBJECT_ID":"2021-083J","EPOCH":"2025-08-31T03:20:16.959552","MEAN_MOTION":13.18686753,"ECCENTRICITY":0.00016922,"INCLINATION":87.9167,"RA_OF_ASC_NODE":33.0639,"ARG_OF_PERICENTER":93.1316,"MEAN_ANOMALY":267.001,"EPHEMERIS_TYPE":0,"CLASSIFICATION_TYPE":"U","NORAD_CAT_ID":49194,"ELEMENT_SET_NO":999,"REV_AT_EPOCH":19178,"BSTAR":1.4628877e-5,"MEAN_MOTION_DOT":1.9e-7,"MEAN_MOTION_DDOT":0},{"OBJECT_NAME":"ONEWEB-0326","OBJECT_ID":"2021-083K","EPOCH":"2025-08-31T03:41:50.943840","MEAN_MOTION":13.18688681,"ECCENTRICITY":0.00021238,"INCLINATION":87.9164,"RA_OF_ASC_NODE":33.0494,"ARG_OF_PERICENTER":94.8652,"MEAN_ANOMALY":265.2722,"EPHEMERIS_TYPE":0,"CLASSIFICATION_TYPE":"U","NORAD_CAT_ID":49195,"ELEMENT_SET_NO":999,"REV_AT_EPOCH":19177,"BSTAR":5.7658162e-5,"MEAN_MOTION_DOT":3.6e-7,"MEAN_MOTION_DDOT":0},{"OBJECT_NAME":"ONEWEB-0327","OBJECT_ID":"2021-083L","EPOCH":"2025-08-31T03:41:26.043360","MEAN_MOTION":13.18685905,"ECCENTRICITY":0.00020899,"INCLINATION":87.9161,"RA_OF_ASC_NODE":33.0768,"ARG_OF_PERICENTER":94.2029,"MEAN_ANOMALY":265.9342,"EPHEMERIS_TYPE":0,"CLASSIFICATION_TYPE":"U","NORAD_CAT_ID":49196,"ELEMENT_SET_NO":999,"REV_AT_EPOCH":19179,"BSTAR":-0.00043040402,"MEAN_MOTION_DOT":-1.57e-6,"MEAN_MOTION_DDOT":0},{"OBJECT_NAME":"ONEWEB-0328","OBJECT_ID":"2021-083M","EPOCH":"2025-08-31T03:17:29.950944","MEAN_MOTION":13.13470507,"ECCENTRICITY":0.00017091,"INCLINATION":87.9014,"RA_OF_ASC_NODE":17.8172,"ARG_OF_PERICENTER":101.6897,"MEAN_ANOMALY":258.4424,"EPHEMERIS_TYPE":0,"CLASSIFICATION_TYPE":"U","NORAD_CAT_ID":49197,"ELEMENT_SET_NO":999,"REV_AT_EPOCH":19282,"BSTAR":0.00086558162,"MEAN_MOTION_DOT":3.29e-6,"MEAN_MOTION_DDOT":0},{"OBJECT_NAME":"ONEWEB-0331","OBJECT_ID":"2021-083N","EPOCH":"2025-08-30T22:04:22.880928","MEAN_MOTION":13.1868623,"ECCENTRICITY":0.00020524,"INCLINATION":87.9164,"RA_OF_ASC_NODE":33.0884,"ARG_OF_PERICENTER":101.9045,"MEAN_ANOMALY":258.2317,"EPHEMERIS_TYPE":0,"CLASSIFICATION_TYPE":"U","NORAD_CAT_ID":49198,"ELEMENT_SET_NO":999,"REV_AT_EPOCH":19175,"BSTAR":9.1267735e-5,"MEAN_MOTION_DOT":4.9e-7,"MEAN_MOTION_DDOT":0},{"OBJECT_NAME":"ONEWEB-0333","OBJECT_ID":"2021-083P","EPOCH":"2025-08-31T03:10:11.154720","MEAN_MOTION":13.13470063,"ECCENTRICITY":0.00017397,"INCLINATION":87.9001,"RA_OF_ASC_NODE":17.8868,"ARG_OF_PERICENTER":95.5385,"MEAN_ANOMALY":264.5942,"EPHEMERIS_TYPE":0,"CLASSIFICATION_TYPE":"U","NORAD_CAT_ID":49199,"ELEMENT_SET_NO":999,"REV_AT_EPOCH":19283,"BSTAR":0.00097574531,"MEAN_MOTION_DOT":3.69e-6,"MEAN_MOTION_DDOT":0}]
